{"type": "FeatureCollection", "features": [ {"type": "Feature", "properties": {"norad_id": 39122, "name": "EUTELSAT 117 WEST A", "group": "eutelsat", "lat": -0.0053344366678328035, "lon": -47.52164998663393, "alt_km": 35775.93727889334, "timestamp": "2025-12-19T22:41:52.050797+00:00", "meta": {"OBJECT_NAME": "EUTELSAT 117 WEST A", "OBJECT_ID": "2013-012A", "EPOCH": "2025-12-19T12:21:38.812320", "MEAN_MOTION": 1.00274631, "ECCENTRICITY": 0.0002807, "INCLINATION": 0.032, "RA_OF_ASC_NODE": 299.7491, "ARG_OF_PERICENTER": 334.4616, "MEAN_ANOMALY": 242.7738, "EPHEMERIS_TYPE": 0, "CLASSIFICATION_TYPE": "U", "NORAD_CAT_ID": 39122, "ELEMENT_SET_NO": 999, "REV_AT_EPOCH": 4663, "BSTAR": 0, "MEAN_MOTION_DOT": 1.1e-07, "MEAN_MOTION_DDOT": 0}, "tle": {"line1": "1 39122U 13012A   25353.51503255  .00000011  00000+0  00000+0 0  9998", "line2": "2 39122   0.0320 299.7491 0002807 334.4616 242.7738  1.00274631 46635"}}, "geometry": {"type": "Point", "coordinates": [-47.52164998663393, -0.0053344366678328035]}}, {"type": "Feature", "properties": {"norad_id": 39163, "name": "EUTELSAT 7B", "group": "eutelsat", "lat": 0.0914874200250009, "lon": 76.28658204369371, "alt_km": 35793.99542046515, "timestamp": "2025-12-19T22:41:52.050828+00:00", "meta": {"OBJECT_NAME": "EUTELSAT 7B", "OBJECT_ID": "2013-022A", "EPOCH": "2025-12-19T06:26:58.431840", "MEAN_MOTION": 1.00270274, "ECCENTRICITY": 0.0004283, "INCLINATION": 0.0652, "RA_OF_ASC_NODE": 356.9078, "ARG_OF_PERICENTER": 324.8571, "MEAN_ANOMALY": 230.1004, "EPHEMERIS_TYPE": 0, "CLASSIFICATION_TYPE": "U", "NORAD_CAT_ID": 39163, "ELEMENT_SET_NO": 999, "REV_AT_EPOCH": 4614, "BSTAR": 0, "MEAN_MOTION_DOT": 7.3e-07, "MEAN_MOTION_DDOT": 0}, "tle": {"line1": "1 39163U 13022A   25353.26873185  .00000073  00000+0  00000+0 0  9996", "line2": "2 39163   0.0652 356.9078 0004283 324.8571 230.1004  1.00270274 46140"}}, "geometry": {"type": "Point", "coordinates": [76.28658204369371, 0.0914874200250009]}}, {"type": "Feature", "properties": {"norad_id": 39612, "name": "EXPRESS-AT1", "group": "eutelsat", "lat": 0.04023287258129112, "lon": 125.2301335819091, "alt_km": 35784.62246049984, "timestamp": "2025-12-19T22:41:52.050846+00:00", "meta": {"OBJECT_NAME": "EXPRESS-AT1", "OBJECT_ID": "2014-010A", "EPOCH": "2025-12-19T13:31:46.041312", "MEAN_MOTION": 1.00270605, "ECCENTRICITY": 4.94e-05, "INCLINATION": 0.022, "RA_OF_ASC_NODE": 3.3546, "ARG_OF_PERICENTER": 88.7338, "MEAN_ANOMALY": 255.2488, "EPHEMERIS_TYPE": 0, "CLASSIFICATION_TYPE": "U", "NORAD_CAT_ID": 39612, "ELEMENT_SET_NO": 999, "REV_AT_EPOCH": 4301, "BSTAR": 0, "MEAN_MOTION_DOT": 0, "MEAN_MOTION_DDOT": 0}, "tle": {"line1": "1 39612U 14010A   25353.56372733  .00000000  00000+0  00000+0 0  9999", "line2": "2 39612   0.0220   3.3546 0000494  88.7338 255.2488  1.00270605 43015"}}, "geometry": {"type": "Point", "coordinates": [125.2301335819091, 0.04023287258129112]}}, {"type": "Feature", "properties": {"norad_id": 39613, "name": "EXPRESS-AT2", "group": "eutelsat", "lat": -0.03236600598634085, "lon": -150.9117125629623, "alt_km": 35785.42822195608, "timestamp": "2025-12-19T22:41:52.050859+00:00", "meta": {"OBJECT_NAME": "EXPRESS-AT2", "OBJECT_ID": "2014-010B", "EPOCH": "2025-12-19T15:17:38.440608", "MEAN_MOTION": 1.00271653, "ECCENTRICITY": 0.0001024, "INCLINATION": 0.0167, "RA_OF_ASC_NODE": 316.7703, "ARG_OF_PERICENTER": 332.8216, "MEAN_ANOMALY": 168.1578, "EPHEMERIS_TYPE": 0, "CLASSIFICATION_TYPE": "U", "NORAD_CAT_ID": 39613, "ELEMENT_SET_NO": 999, "REV_AT_EPOCH": 4270, "BSTAR": 0, "MEAN_MOTION_DOT": -2.57e-06, "MEAN_MOTION_DDOT": 0}, "tle": {"line1": "1 39613U 14010B   25353.63725047 -.00000257  00000+0  00000+0 0  9993", "line2": "2 39613   0.0167 316.7703 0001024 332.8216 168.1578  1.00271653 42701"}}, "geometry": {"type": "Point", "coordinates": [-150.9117125629623, -0.03236600598634085]}}, {"type": "Feature", "properties": {"norad_id": 39773, "name": "EUTELSAT 3B", "group": "eutelsat", "lat": 0.08275481865680348, "lon": 72.31951429576722, "alt_km": 35802.49661890025, "timestamp": "2025-12-19T22:41:52.050872+00:00", "meta": {"OBJECT_NAME": "EUTELSAT 3B", "OBJECT_ID": "2014-030A", "EPOCH": "2025-12-19T13:16:47.475264", "MEAN_MOTION": 1.00272393, "ECCENTRICITY": 0.0004172, "INCLINATION": 0.0604, "RA_OF_ASC_NODE": 4.345, "ARG_OF_PERICENTER": 228.1768, "MEAN_ANOMALY": 58.1672, "EPHEMERIS_TYPE": 0, "CLASSIFICATION_TYPE": "U", "NORAD_CAT_ID": 39773, "ELEMENT_SET_NO": 999, "REV_AT_EPOCH": 4226, "BSTAR": 0, "MEAN_MOTION_DOT": 4.5e-07, "MEAN_MOTION_DDOT": 0}, "tle": {"line1": "1 39773U 14030A   25353.55332726  .00000045  00000+0  00000+0 0  9995", "line2": "2 39773   0.0604   4.3450 0004172 228.1768  58.1672  1.00272393 42265"}}, "geometry": {"type": "Point", "coordinates": [72.31951429576722, 0.08275481865680348]}}, {"type": "Feature", "properties": {"norad_id": 40425, "name": "EUTELSAT 115 WEST B", "group": "eutelsat", "lat": 0.0062299525691548166, "lon": -45.646188137074, "alt_km": 35784.06262820536, "timestamp": "2025-12-19T22:41:52.050884+00:00", "meta": {"OBJECT_NAME": "EUTELSAT 115 WEST B", "OBJECT_ID": "2015-010B", "EPOCH": "2025-12-19T12:08:14.383392", "MEAN_MOTION": 1.00273295, "ECCENTRICITY": 3.76e-05, "INCLINATION": 0.0143, "RA_OF_ASC_NODE": 153.4054, "ARG_OF_PERICENTER": 157.9495, "MEAN_ANOMALY": 204.1658, "EPHEMERIS_TYPE": 0, "CLASSIFICATION_TYPE": "U", "NORAD_CAT_ID": 40425, "ELEMENT_SET_NO": 999, "REV_AT_EPOCH": 3959, "BSTAR": 0, "MEAN_MOTION_DOT": -1e-08, "MEAN_MOTION_DDOT": 0}, "tle": {"line1": "1 40425U 15010B   25353.50572203 -.00000001  00000+0  00000+0 0  9994", "line2": "2 40425   0.0143 153.4054 0000376 157.9495 204.1658  1.00273295 39594"}}, "geometry": {"type": "Point", "coordinates": [-45.646188137074, 0.0062299525691548166]}}, {"type": "Feature", "properties": {"norad_id": 40875, "name": "EUTELSAT 8 WEST B", "group": "eutelsat", "lat": 0.08287073576748605, "lon": 61.27357201027225, "alt_km": 35802.2283970691, "timestamp": "2025-12-19T22:41:52.050896+00:00", "meta": {"OBJECT_NAME": "EUTELSAT 8 WEST B", "OBJECT_ID": "2015-039B", "EPOCH": "2025-12-19T18:21:37.631232", "MEAN_MOTION": 1.00271041, "ECCENTRICITY": 0.0004278, "INCLINATION": 0.0634, "RA_OF_ASC_NODE": 356.5295, "ARG_OF_PERICENTER": 273.1926, "MEAN_ANOMALY": 86.3009, "EPHEMERIS_TYPE": 0, "CLASSIFICATION_TYPE": "U", "NORAD_CAT_ID": 40875, "ELEMENT_SET_NO": 999, "REV_AT_EPOCH": 3785, "BSTAR": 0, "MEAN_MOTION_DOT": -4.1e-07, "MEAN_MOTION_DDOT": 0}, "tle": {"line1": "1 40875U 15039B   25353.76501888 -.00000041  00000+0  00000+0 0  9997", "line2": "2 40875   0.0634 356.5295 0004278 273.1926  86.3009  1.00271041 37850"}}, "geometry": {"type": "Point", "coordinates": [61.27357201027225, 0.08287073576748605]}}, {"type": "Feature", "properties": {"norad_id": 41310, "name": "EUTELSAT 9B", "group": "eutelsat", "lat": 0.03105311230321962, "lon": 78.25045109147428, "alt_km": 35803.9832419093, "timestamp": "2025-12-19T22:41:52.050908+00:00", "meta": {"OBJECT_NAME": "EUTELSAT 9B", "OBJECT_ID": "2016-005A", "EPOCH": "2025-12-19T18:26:29.664096", "MEAN_MOTION": 1.00272484, "ECCENTRICITY": 0.0004462, "INCLINATION": 0.0609, "RA_OF_ASC_NODE": 71.098, "ARG_OF_PERICENTER": 203.9311, "MEAN_ANOMALY": 99.1983, "EPHEMERIS_TYPE": 0, "CLASSIFICATION_TYPE": "U", "NORAD_CAT_ID": 41310, "ELEMENT_SET_NO": 999, "REV_AT_EPOCH": 3631, "BSTAR": 0, "MEAN_MOTION_DOT": 8.6e-07, "MEAN_MOTION_DDOT": 0}, "tle": {"line1": "1 41310U 16005A   25353.76839889  .00000086  00000+0  00000+0 0  9999", "line2": "2 41310   0.0609  71.0980 0004462 203.9311  99.1983  1.00272484 36316"}}, "geometry": {"type": "Point", "coordinates": [78.25045109147428, 0.03105311230321962]}}, {"type": "Feature", "properties": {"norad_id": 41382, "name": "EUTELSAT 65 WEST A", "group": "eutelsat", "lat": 0.0372244582729517, "lon": 4.0573364406856625, "alt_km": 35785.946530761634, "timestamp": "2025-12-19T22:41:52.050921+00:00", "meta": {"OBJECT_NAME": "EUTELSAT 65 WEST A", "OBJECT_ID": "2016-014A", "EPOCH": "2025-12-19T11:38:39.170976", "MEAN_MOTION": 1.00274135, "ECCENTRICITY": 0.0002092, "INCLINATION": 0.0543, "RA_OF_ASC_NODE": 330.1482, "ARG_OF_PERICENTER": 300.8547, "MEAN_ANOMALY": 286.7795, "EPHEMERIS_TYPE": 0, "CLASSIFICATION_TYPE": "U", "NORAD_CAT_ID": 41382, "ELEMENT_SET_NO": 999, "REV_AT_EPOCH": 3573, "BSTAR": 0, "MEAN_MOTION_DOT": -2.52e-06, "MEAN_MOTION_DDOT": 0}, "tle": {"line1": "1 41382U 16014A   25353.48517559 -.00000252  00000+0  00000+0 0  9990", "line2": "2 41382   0.0543 330.1482 0002092 300.8547 286.7795  1.00274135 35738"}}, "geometry": {"type": "Point", "coordinates": [4.0573364406856625, 0.0372244582729517]}}, {"type": "Feature", "properties": {"norad_id": 41589, "name": "EUTELSAT 117 WEST B", "group": "eutelsat", "lat": 0.0068774325562330554, "lon": -47.740700464254346, "alt_km": 35784.80443792365, "timestamp": "2025-12-19T22:41:52.050932+00:00", "meta": {"OBJECT_NAME": "EUTELSAT 117 WEST B", "OBJECT_ID": "2016-038B", "EPOCH": "2025-12-19T12:07:15.989088", "MEAN_MOTION": 1.00271292, "ECCENTRICITY": 3.33e-05, "INCLINATION": 0.0139, "RA_OF_ASC_NODE": 154.0822, "ARG_OF_PERICENTER": 162.5919, "MEAN_ANOMALY": 196.5118, "EPHEMERIS_TYPE": 0, "CLASSIFICATION_TYPE": "U", "NORAD_CAT_ID": 41589, "ELEMENT_SET_NO": 999, "REV_AT_EPOCH": 3486, "BSTAR": 0, "MEAN_MOTION_DOT": 1.3e-07, "MEAN_MOTION_DDOT": 0}, "tle": {"line1": "1 41589U 16038B   25353.50504617  .00000013  00000+0  00000+0 0  9993", "line2": "2 41589   0.0139 154.0822 0000333 162.5919 196.5118  1.00271292 34862"}}, "geometry": {"type": "Point", "coordinates": [-47.740700464254346, 0.0068774325562330554]}}]}